294P/LINEAR,e,17.7429,309.5999,237.5872,3.190233,0.1729699,0.60095474,8.4420,09/29.0/2025,2000,g 15.5,4.0
# From MPEC 2025-S35
295P/LINEAR,e,21.0866,7.3784,73.0556,5.297773,0.0808284,0.61760958,336.0146,09/29.0/2025,2000,g 12.0,4.0
# From MPEC 2021-N06
296P/Garradd,e,25.3583,263.5037,350.4221,3.466933,0.1526813,0.48675643,277.9581,09/29.0/2025,2000,g 14.0,4.0
# From MPC102956
297P/Beshore,e,11.2280,92.1722,142.5435,3.572580,0.1459591,0.28135111,249.8490,09/29.0/2025,2000,g 15.0,4.0
# From MPC114609
298P/Christensen,e,7.8728,52.7835,100.6287,3.587937,0.1450230,0.38703366,268.1004,09/29.0/2025,2000,g 15.0,4.0
# From MPEC 2025-SH3
299P/Catalina-PANSTARRS,e,10.4689,271.5799,323.5900,4.388202,0.1072196,0.28094137,55.4438,09/29.0/2025,2000,g 11.5,4.0
# From MPEC 2023-VM5
300P/Catalina,e,5.6765,95.6207,222.8740,2.696059,0.2226434,0.69228156,200.8219,09/29.0/2025,2000,g 16.0,4.0
# From MPC 89014
301P/LINEAR-NEAT,e,10.3287,351.0625,193.4190,5.753167,0.0714239,0.58635663,291.3703,09/29.0/2025,2000,g 13.0,4.0
# From MPEC 2025-SH3
302P/Lemmon-PANSTARRS,e,6.0357,121.7168,208.6159,4.266452,0.1118417,0.22919009,22.7772,09/29.0/2025,2000,g 12.5,4.0
# From MPEC 2025-R69
303P/NEAT,e,7.0163,347.9073,357.0581,5.038989,0.0871343,0.51016296,347.4588,09/29.0/2025,2000,g 13.5,4.0
# From MPEC 2022-K19
304P/Ory,e,2.6055,58.9358,335.2865,3.149280,0.1763547,0.60080365,329.9826,09/29.0/2025,2000,g 16.5,4.0
# From MPC182890
305P/Skiff,e,11.6700,240.0876,147.3877,4.634030,0.0988020,0.69405264,31.2097,09/29.0/2025,2000,g 18.0,4.0
# From MPEC 2025-SH3
306P/LINEAR,e,8.3018,341.3400,0.9107,3.123926,0.1785060,0.59251336,10.4168,09/29.0/2025,2000,g 19.0,4.0
# From MPC 92278
307P/LINEAR,e,4.4342,158.1004,222.2627,5.788142,0.0707775,0.67488012,277.8653,09/29.0/2025,2000,g 15.0,4.0
# From MPEC 2022-C56
308P/Lagerkvist-Carsenty,e,4.8516,63.1002,333.7639,6.601892,0.0581034,0.36397235,220.1858,09/29.0/2025,2000,g 13.0,2.0
# From MPC184419
309P/LINEAR,e,17.0182,10.1389,49.9275,4.374967,0.1077065,0.61816265,59.1386,09/29.0/2025,2000,g 15.0,4.0
# From MPC182891
310P/Hill,e,13.1200,8.8838,31.5162,4.180802,0.1152961,0.42198689,81.5075,09/29.0/2025,2000,g 13.5,4.0
# From MPC184419
311P/PANSTARRS,e,4.9714,279.1680,144.3122,2.188793,0.3043666,0.11544179,193.5978,09/29.0/2025,2000,g 17.0,4.0
# From MPEC 2024-NE4
312P/NEAT,e,19.7455,144.6302,207.6921,3.472730,0.1522992,0.42658801,278.8973,09/29.0/2025,2000,g 16.0,4.0
# From MPEC 2025-SI6
313P/Gibbs,e,10.9811,105.9256,254.9963,3.162840,0.1752219,0.23436332,348.6495,09/29.0/2025,2000,g 15.0,4.0
# From MPC105243
314P/Montani,e,3.9921,267.6234,213.8779,7.248529,0.0505044,0.41872020,165.2163,09/29.0/2025,2000,g  9.5,4.0
# From MPEC 2025-SH3
315P/LONEOS,e,17.7361,68.6291,65.9438,4.935390,0.0898922,0.52218877,290.0215,09/29.0/2025,2000,g 11.0,4.0
# From MPC182891
316P/LONEOS-Christensen,e,9.8680,245.8452,186.6562,4.401246,0.1067433,0.15574561,38.6687,09/29.0/2025,2000,g 13.5,4.0
# From MPEC 2020-C98
317P/WISE,e,11.9748,275.4720,334.8881,2.959729,0.1935647,0.57204943,353.8325,09/29.0/2025,2000,g 17.5,4.0
# From MPC102103
318P/McNaught-Hartley,e,17.8609,35.6191,313.2878,7.515866,0.0478339,0.67302336,173.6604,09/29.0/2025,2000,g  8.5,6.0
# From MPC184420
319P/Catalina-McNaught,e,15.0979,111.3670,203.5791,3.562144,0.1466010,0.66660500,187.4398,09/29.0/2025,2000,g 15.0,4.0
# From MPC 96281
320P/McNaught,e,4.9028,295.9402,0.7582,3.096085,0.1809192,0.68495727,310.8200,09/29.0/2025,2000,g 20.5,4.0
# From MPC105243
321P/SOHO,e,20.0554,165.0262,172.7395,2.422033,0.2614773,0.98100442,0.0000,08/03.2255/2027,2000,g 20.0,4.0
# From MPC102103
322P/SOHO,e,11.4425,351.3005,57.1208,2.508689,0.2480469,0.97990853,0.0000,08/11.5340/2027,2000,g 19.0,4.0
# From MPC182891
323P/SOHO,e,5.2185,323.9243,353.3401,2.440391,0.2585323,0.98348200,0.0000,03/14.2424/2025,2000,g 20.0,4.0
# From MPEC 2024-F21
323P-B/SOHO,e,5.4626,323.4649,353.9690,2.890186,0.2005928,0.98613789,0.0000,12/16.2350/2025,2000,g 26.0,4.0
# From MPEC 2024-F21
323P-C/SOHO,e,5.3436,324.1681,353.2247,2.612445,0.2334174,0.98479186,0.0000,04/07.1093/2025,2000,g 27.0,4.0
# From MPEC 2021-W31
324P/LaSagra,e,21.3994,270.5687,57.3863,3.097507,0.1807946,0.15275531,291.1779,09/29.0/2025,2000,g 13.0,4.0
# From MPEC 2024-LE0
325P/Yang-Gao,e,16.8421,256.8619,344.8893,3.550368,0.1473310,0.58678937,189.4426,09/29.0/2025,2000,g 14.0,4.0
# From MPEC 2024-LE0
326P/Hill,e,2.4738,99.7611,277.9063,4.060036,0.1204784,0.32062443,77.2419,09/29.0/2025,2000,g 13.5,4.0
# From MPEC 2024-M41
327P/VanNess,e,36.2268,173.9989,185.0364,3.563195,0.1465361,0.56242461,164.6050,09/29.0/2025,2000,g 16.0,4.0
# From MPEC 2024-YC7
328P/LONEOS-Tucker,e,17.6904,341.5162,30.6492,4.188175,0.1149918,0.55323895,49.2279,09/29.0/2025,2000,g 14.5,4.0
# From MPC101101
329P/LINEAR-Catalina,e,21.7187,87.6873,343.6129,5.181147,0.0835728,0.67886912,299.2715,09/29.0/2025,2000,g 13.5,4.0
# From MPEC 2023-J29
330P/Catalina,e,15.7418,293.0851,188.8459,6.614448,0.0579380,0.55071955,192.0668,09/29.0/2025,2000,g 12.0,4.0
# From MPEC 2025-R69
331P/Gibbs,e,9.7410,216.7419,185.7094,3.002806,0.1894145,0.04142489,343.4965,09/29.0/2025,2000,g 12.0,4.0
# From MPEC 2016-K18
332P/Ikeya-Murakami,e,9.3864,3.7550,152.3006,3.085985,0.1818081,0.48993507,273.1570,09/29.0/2025,2000,g 18.0,4.0
# From MPEC 2016-K18
332P-A/Ikeya-Murakami,e,9.3860,152.3166,3.7402,3.085963,0.1818101,0.48994300,273.1557,09/29.0/2025,2000,g 18.0,4.0
# From MPEC 2016-EI8
332P-B/Ikeya-Murakami,e,9.3805,3.8028,152.3711,3.082329,0.1821317,0.48970701,359.9699,03/17.0/2016,2000,g 19.0,4.0
# From MPEC 2016-K18
332P-C/Ikeya-Murakami,e,9.3851,152.3079,3.7406,3.085929,0.1818131,0.48994852,273.1743,09/29.0/2025,2000,g 16.5,4.0
# From MPEC 2016-ED0
332P-D/Ikeya-Murakami,e,9.3761,3.7923,152.4393,3.081138,0.1822373,0.48977814,359.9486,03/17.0/2016,2000,g 19.0,4.0
# From MPEC 2016-ED0
332P-E/Ikeya-Murakami,e,9.3774,3.8228,152.2825,3.079877,0.1823493,0.48922008,359.9889,03/17.0/2016,2000,g 21.0,4.0
# From MPEC 2016-ED0
332P-F/Ikeya-Murakami,e,9.5293,3.4757,152.8203,3.163214,0.1751908,0.49918860,359.8501,03/17.0/2016,2000,g 21.0,4.0
# From MPEC 2016-ED0
332P-G/Ikeya-Murakami,e,9.2523,3.6955,154.4000,3.050519,0.1849880,0.49200362,359.9006,03/19.0/2016,2000,g 19.0,4.0
# From MPC100285
332P-H/Ikeya-Murakami,e,9.3856,152.3085,3.7403,3.086108,0.1817972,0.48998458,273.0849,09/29.0/2025,2000,g 19.0,4.0
# From MPEC 2016-ED0
332P-I/Ikeya-Murakami,e,9.3791,3.8048,152.3297,3.081767,0.1821815,0.48955490,359.9360,03/17.0/2016,2000,g 20.5,2.0
# From MPEC 2016-EI8
332P-J/Ikeya-Murakami,e,9.4296,3.6729,152.7712,3.115165,0.1792596,0.49429435,359.8613,03/17.0/2016,2000,g 22.5,2.0
# From MPEC 2025-SH3
333P/LINEAR,e,132.0236,115.7055,26.0287,4.221140,0.1136474,0.73629038,34.5145,09/29.0/2025,2000,g 15.0,4.0
# From MPEC 2023-J29
334P/NEAT,e,20.3629,90.3263,90.0918,6.823196,0.0552996,0.35220666,168.0023,09/29.0/2025,2000,g 10.5,4.0
# From MPEC 2023-M14
335P/Gibbs,e,7.2989,330.7874,162.3294,3.577058,0.1456851,0.54696695,166.5605,09/29.0/2025,2000,g 17.0,4.0
# From MPC105244
336P/McNaught,e,17.9072,298.1594,308.8411,5.030243,0.0873616,0.44777086,276.3968,09/29.0/2025,2000,g 13.5,4.0
# From MPEC 2024-A43
337P/WISE,e,17.1560,101.9734,166.4301,3.369720,0.1593358,0.47077030,191.6520,09/29.0/2025,2000,g 17.0,4.0
# From MPC182891
338P/McNaught,e,25.3787,9.7029,4.6387,3.894985,0.1282169,0.41285337,54.0731,09/29.0/2025,2000,g 12.0,4.0
# From MPC101101
339P/Gibbs,e,5.7355,27.4521,172.6718,3.698183,0.1385867,0.63590723,105.3197,09/29.0/2025,2000,g 17.0,4.0
# From MPC133426
340P/Boattini,e,2.0790,291.6599,36.0607,4.246194,0.1126430,0.27983771,3.4647,09/29.0/2025,2000,g 13.0,4.0
# From MPEC 2025-S35
341P/Gibbs,e,3.7965,29.9522,312.3673,4.284344,0.1111418,0.41496940,17.7026,09/29.0/2025,2000,g 12.5,4.0
# From MPC101101
342P/SOHO,e,11.6870,73.2992,27.6623,3.040592,0.1858946,0.98298921,0.0000,02/07.7279/2027,2000,g 20.0,4.0
# From MPEC 2024-PC5
343P/NEAT-LONEOS,e,5.5975,257.0549,137.6089,5.458136,0.0772925,0.58468705,244.2204,09/29.0/2025,2000,g 14.0,4.0
# From MPEC 2023-J29
344P/Read,e,3.4997,273.1015,140.6428,4.854141,0.0921585,0.42369354,298.8127,09/29.0/2025,2000,g 13.0,4.0
# From MPEC 2024-TP3
345P/LINEAR,e,2.7279,154.4952,196.8695,4.034020,0.1216457,0.22148313,47.8677,09/29.0/2025,2000,g 12.0,4.0
# From MPEC 2025-R69
346P/Catalina,e,22.2193,102.4579,336.0934,4.467017,0.1043945,0.50388760,328.0251,09/29.0/2025,2000,g 14.0,4.0
# From MPEC 2024-RQ6
347P/PANSTARRS,e,11.7654,260.9863,98.0560,3.599030,0.1443530,0.38705734,115.8928,09/29.0/2025,2000,g 15.0,4.0
# From MPEC 2022-ED3
348P/PANSTARRS,e,17.7442,312.9110,135.7943,3.151388,0.1761778,0.30752867,233.1167,09/29.0/2025,2000,g 14.0,4.0
# From MPEC 2024-LE0
349P/Lemmon,e,5.4896,331.7383,255.7260,3.577592,0.1456525,0.29861858,71.3858,09/29.0/2025,2000,g 14.0,4.0
# From MPC184420
350P/McNaught,e,7.3655,65.2954,140.0702,4.081172,0.1195437,0.09480336,339.7380,09/29.0/2025,2000,g 14.0,4.0
# From MPEC 2025-SH3
351P/Wiegert-PANSTARRS,e,12.7785,283.3841,352.5488,4.440093,0.1053455,0.29465407,19.6903,09/29.0/2025,2000,g 12.5,4.0
# From MPEC 2023-J29
352P/Skiff,e,21.0005,28.0627,309.3538,6.656405,0.0573911,0.61575088,173.6316,09/29.0/2025,2000,g 11.5,4.0
# From MPEC 2025-R69
353P/McNaught,e,28.4098,121.4574,230.5345,4.170546,0.1157217,0.46970148,328.1288,09/29.0/2025,2000,g 14.5,4.0
# From MPEC 2024-EF7
354P/LINEAR,e,5.2510,320.0560,132.9626,2.290296,0.2843588,0.12447050,203.4919,09/29.0/2025,2000,g 15.5,4.0
# From MPEC 2023-CD7
355P/LINEAR-NEAT,e,11.0461,51.4219,336.2526,3.466759,0.1526928,0.50791413,83.3401,09/29.0/2025,2000,g 15.5,2.0
# From MPEC 2025-S35
356P/WISE,e,9.6395,160.7451,226.2833,4.151532,0.1165176,0.35578217,330.1249,09/29.0/2025,2000,g 14.0,4.0
# From MPC114609
357P/Hill,e,6.3121,44.5626,1.5217,4.454574,0.1048322,0.43595642,280.2493,09/29.0/2025,2000,g 15.5,4.0
# From MPEC 2024-EF7
358P/PANSTARRS,e,11.0667,85.6658,299.3112,3.145468,0.1766754,0.23945298,121.8349,09/29.0/2025,2000,g 18.0,4.0
# From MPC110086
